TROLL                   
1 62658U 25009BB  26068.22522958  .00013174  00000+0  48220-3 0  9994
2 62658  97.3932 150.7169 0001816  59.1850 300.9568 15.28164315118170
STARLINK-36180          
1 67114U 25299N   26068.29547513  .00026728  00000+0  95248-3 0  9999
2 67114  42.9978 171.4194 0001102 319.3332  40.7437 15.28423882 13052
